{
    "links": {
        "self": "http://www.neowsapp.com/rest/v1/neo/3843803?api_key=iIulBulltgU6a56xZRHN4H3l9WmuAYTsLGpBGhQ2"
    },
    "id": "3843803",
    "neo_reference_id": "3843803",
    "name": "(2019 RU1)",
    "designation": "2019 RU1",
    "nasa_jpl_url": "http://ssd.jpl.nasa.gov/sbdb.cgi?sstr=3843803",
    "absolute_magnitude_h": 22.1,
    "estimated_diameter": {
        "kilometers": {
            "estimated_diameter_min": 0.1010543415,
            "estimated_diameter_max": 0.2259643771
        },
        "meters": {
            "estimated_diameter_min": 101.054341542,
            "estimated_diameter_max": 225.9643771094
        },
        "miles": {
            "estimated_diameter_min": 0.0627922373,
            "estimated_diameter_max": 0.140407711
        },
        "feet": {
            "estimated_diameter_min": 331.5431259047,
            "estimated_diameter_max": 741.3529669956
        }
    },
    "is_potentially_hazardous_asteroid": false,
    "close_approach_data": [
        {
            "close_approach_date": "1943-09-15",
            "close_approach_date_full": "1943-Sep-15 04:35",
            "epoch_date_close_approach": -829855500000,
            "relative_velocity": {
                "kilometers_per_second": "5.4578625019",
                "kilometers_per_hour": "19648.3050069251",
                "miles_per_hour": "12208.692630553"
            },
            "miss_distance": {
                "astronomical": "1.1358278374",
                "lunar": "441.8370287486",
                "kilometers": "169917425.161746338",
                "miles": "105581792.1027539444"
            },
            "orbiting_body": "Juptr"
        },
        {
            "close_approach_date": "2003-02-09",
            "close_approach_date_full": "2003-Feb-09 07:03",
            "epoch_date_close_approach": 1044774180000,
            "relative_velocity": {
                "kilometers_per_second": "6.7601848407",
                "kilometers_per_hour": "24336.6654266159",
                "miles_per_hour": "15121.8574702214"
            },
            "miss_distance": {
                "astronomical": "1.9313336726",
                "lunar": "751.2887986414",
                "kilometers": "288923403.680237362",
                "miles": "179528678.1914731156"
            },
            "orbiting_body": "Juptr"
        },
        {
            "close_approach_date": "2019-08-24",
            "close_approach_date_full": "2019-Aug-24 10:39",
            "epoch_date_close_approach": 1566643140000,
            "relative_velocity": {
                "kilometers_per_second": "14.1787676242",
                "kilometers_per_hour": "51043.5634472665",
                "miles_per_hour": "31716.485298664"
            },
            "miss_distance": {
                "astronomical": "0.1339391059",
                "lunar": "52.1023121951",
                "kilometers": "20037004.952344433",
                "miles": "12450417.5438538554"
            },
            "orbiting_body": "Earth"
        },
        {
            "close_approach_date": "2026-10-16",
            "close_approach_date_full": "2026-Oct-16 15:58",
            "epoch_date_close_approach": 1792166280000,
            "relative_velocity": {
                "kilometers_per_second": "5.3869156524",
                "kilometers_per_hour": "19392.8963486269",
                "miles_per_hour": "12049.9916228454"
            },
            "miss_distance": {
                "astronomical": "1.1405428194",
                "lunar": "443.6711567466",
                "kilometers": "170622776.426034678",
                "miles": "106020077.0548394364"
            },
            "orbiting_body": "Juptr"
        }
    ],
    "orbital_data": {
        "orbit_id": "8",
        "orbit_determination_date": "2019-10-18 06:01:23",
        "first_observation_date": "2019-09-06",
        "last_observation_date": "2019-10-04",
        "data_arc_in_days": 28,
        "observations_used": 67,
        "orbit_uncertainty": "7",
        "minimum_orbit_intersection": ".125067",
        "jupiter_tisserand_invariant": "2.968",
        "epoch_osculation": "2459000.5",
        "eccentricity": ".6116706770914172",
        "semi_major_axis": "2.775900811329755",
        "inclination": "18.9305934409587",
        "ascending_node_longitude": "338.0159781571638",
        "orbital_period": "1689.290511123394",
        "perihelion_distance": "1.077963682525069",
        "perihelion_argument": "324.0469471700852",
        "aphelion_distance": "4.47383794013444",
        "perihelion_time": "2458696.546313763874",
        "mean_anomaly": "64.77472425523653",
        "mean_motion": ".213107217278215",
        "equinox": "J2000",
        "orbit_class": {
            "orbit_class_type": "AMO",
            "orbit_class_description": "Near-Earth asteroid orbits similar to that of 1221 Amor",
            "orbit_class_range": "1.017 AU < q (perihelion) < 1.3 AU"
        }
    },
    "is_sentry_object": false
}